GPS_BIIRM-4-PRN-15
1 32260U 07047A   23123.47357765  .00000087  00000+0  00000+0 0  9999
2 32260  53.4185 127.2742 0146268  67.9526 293.6327  2.00558407113938
